STARLINK-31663          
1 59576U 24076N   26068.19315684 -.00001934  00000+0 -60810-4 0  9997
2 59576  43.0028  12.0711 0001489 274.3528  85.7154 15.27564134106427
TIANHUI 7               
1 67300U 25314A   26052.67009905  .00006572  00000+0  25701-3 0  9999
2 67300  97.4117 129.4508 0001691  83.9579 276.1853 15.26178925  8178
